{
  "type": "FeatureCollection",
  "features": [
    {
      "type": "Feature",
      "properties": {
        "norad_id": 36036,
        "name": "SMOS",
        "group": "resource",
        "lat": 74.13148926466192,
        "lon": 136.20515693277014,
        "alt_km": 751.4862480790389,
        "timestamp": "2025-12-08T13:49:31.450028+00:00",
        "meta_object_name": "SMOS",
        "meta_object_id": "2009-059A",
        "meta_epoch": "2025-12-08T06:47:58.675200",
        "meta_mean_motion": 14.39735674,
        "meta_eccentricity": 0.00011141,
        "meta_inclination": 98.4383,
        "meta_ra_of_asc_node": 167.3978,
        "meta_arg_of_pericenter": 85.3107,
        "meta_mean_anomaly": 274.8208,
        "meta_ephemeris_type": 0,
        "meta_classification_type": "U",
        "meta_norad_cat_id": 36036,
        "meta_element_set_no": 999,
        "meta_rev_at_epoch": 84598,
        "meta_bstar": 0.00025754552,
        "meta_mean_motion_dot": 7.63e-06,
        "meta_mean_motion_ddot": 0,
        "tle_line1": "1 36036U 09059A   25342.28331800  .00000763  00000+0  25755-3 0  9994",
        "tle_line2": "2 36036  98.4383 167.3978 0001114  85.3107 274.8208 14.39735674845981"
      },
      "geometry": {
        "type": "Point",
        "coordinates": [
          136.20515693277014,
          74.13148926466192
        ]
      }
    },
    {
      "type": "Feature",
      "properties": {
        "norad_id": 36110,
        "name": "YAOGAN-7",
        "group": "resource",
        "lat": 52.41706838165542,
        "lon": -146.22203755230083,
        "alt_km": 639.277314944191,
        "timestamp": "2025-12-08T13:49:31.450038+00:00",
        "meta_object_name": "YAOGAN-7",
        "meta_object_id": "2009-069A",
        "meta_epoch": "2025-12-08T05:27:36.490752",
        "meta_mean_motion": 14.77722582,
        "meta_eccentricity": 0.00235226,
        "meta_inclination": 98.0303,
        "meta_ra_of_asc_node": 224.0005,
        "meta_arg_of_pericenter": 296.6511,
        "meta_mean_anomaly": 63.229,
        "meta_ephemeris_type": 0,
        "meta_classification_type": "U",
        "meta_norad_cat_id": 36110,
        "meta_element_set_no": 999,
        "meta_rev_at_epoch": 86142,
        "meta_bstar": 0.00019335483,
        "meta_mean_motion_dot": 1.339e-05,
        "meta_mean_motion_ddot": 0,
        "tle_line1": "1 36110U 09069A   25342.22750568  .00001339  00000+0  19335-3 0  9995",
        "tle_line2": "2 36110  98.0303 224.0005 0023522 296.6511  63.2290 14.77722582861421"
      },
      "geometry": {
        "type": "Point",
        "coordinates": [
          -146.22203755230083,
          52.41706838165542
        ]
      }
    },
    {
      "type": "Feature",
      "properties": {
        "norad_id": 36605,
        "name": "TANDEM-X",
        "group": "resource",
        "lat": 38.41068771511317,
        "lon": -17.933722908057533,
        "alt_km": 504.6508711039387,
        "timestamp": "2025-12-08T13:49:31.450049+00:00",
        "meta_object_name": "TANDEM-X",
        "meta_object_id": "2010-030A",
        "meta_epoch": "2025-12-07T13:56:33.880416",
        "meta_mean_motion": 15.19154618,
        "meta_eccentricity": 0.00020407,
        "meta_inclination": 97.4453,
        "meta_ra_of_asc_node": 347.0372,
        "meta_arg_of_pericenter": 90.9544,
        "meta_mean_anomaly": 269.1924,
        "meta_ephemeris_type": 0,
        "meta_classification_type": "U",
        "meta_norad_cat_id": 36605,
        "meta_element_set_no": 999,
        "meta_rev_at_epoch": 85755,
        "meta_bstar": 0.00016903556,
        "meta_mean_motion_dot": 3.485e-05,
        "meta_mean_motion_ddot": 0,
        "tle_line1": "1 36605U 10030A   25341.58094769  .00003485  00000+0  16904-3 0  9999",
        "tle_line2": "2 36605  97.4453 347.0372 0002040  90.9544 269.1924 15.19154618857551"
      },
      "geometry": {
        "type": "Point",
        "coordinates": [
          -17.933722908057533,
          38.41068771511317
        ]
      }
    },
    {
      "type": "Feature",
      "properties": {
        "norad_id": 36795,
        "name": "CARTOSAT-2B",
        "group": "resource",
        "lat": -34.86788669027746,
        "lon": 37.21233231609624,
        "alt_km": 644.6324595516571,
        "timestamp": "2025-12-08T13:49:31.450060+00:00",
        "meta_object_name": "CARTOSAT-2B",
        "meta_object_id": "2010-035A",
        "meta_epoch": "2025-12-08T05:51:53.340768",
        "meta_mean_motion": 14.78779861,
        "meta_eccentricity": 0.00129099,
        "meta_inclination": 97.7858,
        "meta_ra_of_asc_node": 31.4208,
        "meta_arg_of_pericenter": 90.9112,
        "meta_mean_anomaly": 269.3579,
        "meta_ephemeris_type": 0,
        "meta_classification_type": "U",
        "meta_norad_cat_id": 36795,
        "meta_element_set_no": 999,
        "meta_rev_at_epoch": 83163,
        "meta_bstar": 0.00020823065,
        "meta_mean_motion_dot": 1.482e-05,
        "meta_mean_motion_ddot": 0,
        "tle_line1": "1 36795U 10035A   25342.24436737  .00001482  00000+0  20823-3 0  9993",
        "tle_line2": "2 36795  97.7858  31.4208 0012909  90.9112 269.3579 14.78779861831637"
      },
      "geometry": {
        "type": "Point",
        "coordinates": [
          37.21233231609624,
          -34.86788669027746
        ]
      }
    },
    {
      "type": "Feature",
      "properties": {
        "norad_id": 36834,
        "name": "YAOGAN-10",
        "group": "resource",
        "lat": -41.77472639130581,
        "lon": 9.566182732787967,
        "alt_km": 622.1336896453913,
        "timestamp": "2025-12-08T13:49:31.450071+00:00",
        "meta_object_name": "YAOGAN-10",
        "meta_object_id": "2010-038A",
        "meta_epoch": "2025-12-08T07:35:30.386688",
        "meta_mean_motion": 14.84581928,
        "meta_eccentricity": 0.00015091,
        "meta_inclination": 97.9143,
        "meta_ra_of_asc_node": 2.1699,
        "meta_arg_of_pericenter": 84.8067,
        "meta_mean_anomaly": 285.7319,
        "meta_ephemeris_type": 0,
        "meta_classification_type": "U",
        "meta_norad_cat_id": 36834,
        "meta_element_set_no": 999,
        "meta_rev_at_epoch": 82888,
        "meta_bstar": 0.00034753657,
        "meta_mean_motion_dot": 2.881e-05,
        "meta_mean_motion_ddot": 0,
        "tle_line1": "1 36834U 10038A   25342.31632392  .00002881  00000+0  34754-3 0  9995",
        "tle_line2": "2 36834  97.9143   2.1699 0001509  84.8067 285.7319 14.84581928828883"
      },
      "geometry": {
        "type": "Point",
        "coordinates": [
          9.566182732787967,
          -41.77472639130581
        ]
      }
    },
    {
      "type": "Feature",
      "properties": {
        "norad_id": 37216,
        "name": "COSMO-SKYMED 4",
        "group": "resource",
        "lat": -79.21248031209025,
        "lon": -149.40083484216288,
        "alt_km": 630.7780196832427,
        "timestamp": "2025-12-08T13:49:31.450081+00:00",
        "meta_object_name": "COSMO-SKYMED 4",
        "meta_object_id": "2010-060A",
        "meta_epoch": "2025-12-08T06:05:47.477472",
        "meta_mean_motion": 14.82160726,
        "meta_eccentricity": 0.00013658,
        "meta_inclination": 97.8813,
        "meta_ra_of_asc_node": 163.645,
        "meta_arg_of_pericenter": 82.9679,
        "meta_mean_anomaly": 277.169,
        "meta_ephemeris_type": 0,
        "meta_classification_type": "U",
        "meta_norad_cat_id": 37216,
        "meta_element_set_no": 999,
        "meta_rev_at_epoch": 81628,
        "meta_bstar": 0.00014414357,
        "meta_mean_motion_dot": 1.096e-05,
        "meta_mean_motion_ddot": 0,
        "tle_line1": "1 37216U 10060A   25342.25402173  .00001096  00000+0  14414-3 0  9998",
        "tle_line2": "2 37216  97.8813 163.6450 0001365  82.9679 277.1690 14.82160726816282"
      },
      "geometry": {
        "type": "Point",
        "coordinates": [
          -149.40083484216288,
          -79.21248031209025
        ]
      }
    },
    {
      "type": "Feature",
      "properties": {
        "norad_id": 37387,
        "name": "RESOURCESAT-2",
        "group": "resource",
        "lat": 66.98245631572676,
        "lon": 24.79237873390853,
        "alt_km": 808.8041605236003,
        "timestamp": "2025-12-08T13:49:31.450092+00:00",
        "meta_object_name": "RESOURCESAT-2",
        "meta_object_id": "2011-015A",
        "meta_epoch": "2025-12-08T06:44:50.218656",
        "meta_mean_motion": 14.21594742,
        "meta_eccentricity": 0.00066271,
        "meta_inclination": 98.7882,
        "meta_ra_of_asc_node": 45.8529,
        "meta_arg_of_pericenter": 54.1625,
        "meta_mean_anomaly": 306.0167,
        "meta_ephemeris_type": 0,
        "meta_classification_type": "U",
        "meta_norad_cat_id": 37387,
        "meta_element_set_no": 999,
        "meta_rev_at_epoch": 75905,
        "meta_bstar": 0.00016802751,
        "meta_mean_motion_dot": 3.24e-06,
        "meta_mean_motion_ddot": 0,
        "tle_line1": "1 37387U 11015A   25342.28113679  .00000324  00000+0  16803-3 0  9998",
        "tle_line2": "2 37387  98.7882  45.8529 0006627  54.1625 306.0167 14.21594742759057"
      },
      "geometry": {
        "type": "Point",
        "coordinates": [
          24.79237873390853,
          66.98245631572676
        ]
      }
    }
  ]
}